STARLINK-34720          
1 66449U 25259AD  26014.91368260  .00017831  00000+0  65627-3 0  9998
2 66449  42.9998 218.3192 0001902 269.5554  90.5080 15.27562562 11157
STARLINK-35334          
1 66450U 25259AE  26014.97522014  .00009274  00000+0  34603-3 0  9997
2 66450  42.9995 217.9221 0001661 266.8895  93.1767 15.27587569 11272
STARLINK-35643          
1 66456U 25262A   26015.03448587  .00036377  00000+0  87304-3 0  9997
2 66456  43.0012 239.7897 0002279 258.8820 101.1780 15.40730462 10693
STARLINK-35466          
1 66457U 25262B   26014.96518359  .00034134  00000+0  82034-3 0  9998
2 66457  42.9956 240.1295 0001272 283.6146  76.4568 15.40714593 10680
STARLINK-35684          
1 66458U 25262C   26014.96741843  .00021584  00000+0  52210-3 0  9993
2 66458  43.0017 240.1434 0002569 249.1858 110.8723 15.40721436 10683
STARLINK-35449          
1 66459U 25262D   26014.96295576  .00036562  00000+0  87737-3 0  9995
2 66459  43.0010 240.1114 0001915 269.2540  90.8097 15.40732664 10683
STARLINK-35424          
1 66460U 25262E   26015.02553817  .00025834  00000+0  62300-3 0  9999
2 66460  42.9982 239.7203 0001315   7.1569 352.9306 15.40729905 10698
STARLINK-35132          
1 66461U 25262F   26015.02327979  .00018299  00000+0  44416-3 0  9993
2 66461  43.0002 239.7025 0002052 290.9926  69.0711 15.40707206 10690
STARLINK-35499          
1 66462U 25262G   26015.02104576  .00026546  00000+0  63999-3 0  9991
2 66462  43.0029 239.6832 0001973 263.0902  96.9731 15.40725187 10690
STARLINK-35463          
1 66463U 25262H   26015.01656740  .00028967  00000+0  69772-3 0  9990
2 66463  43.0010 239.6523 0002344 265.0359  95.0230 15.40713799 10699
STARLINK-35435          
1 66464U 25262J   26014.95397741  .00029294  00000+0  70545-3 0  9990
2 66464  42.9999 240.0383 0001992 267.0641  92.9988 15.40715999 10687
STARLINK-35448          
1 66465U 25262K   26014.03965889  .00031026  00000+0  74579-3 0  9991
2 66465  43.0018 245.2153 0000985 297.1176  62.9580 15.40747811 10540
STARLINK-35388          
1 66466U 25262L   26014.94500979  .00023035  00000+0  55612-3 0  9995
2 66466  42.9994 239.9679 0001166 239.1103 120.9639 15.40749613 10680
STARLINK-35682          
1 66467U 25262M   26015.16670139  .00009989  00000+0  36298-3 0  9998
2 66467  43.0004 238.9041 0001510 284.5150 140.2113 15.28391718  5845
STARLINK-35331          
1 66468U 25262N   26015.16670139  .00009803  00000+0  35608-3 0  9998
2 66468  43.0001 238.7907 0001971 258.3594 213.6806 15.28419771  5781
STARLINK-35451          
1 66469U 25262P   26015.00088566  .00022151  00000+0  53570-3 0  9998
2 66469  43.0017 239.5256 0002458 256.2905 103.7678 15.40715513 10698
