[{"OBJECT_NAME":"STARLINK-34720","OBJECT_ID":"2025-259AD","EPOCH":"2026-01-14T21:55:42.176640","MEAN_MOTION":15.27562562,"ECCENTRICITY":0.0001902,"INCLINATION":42.9998,"RA_OF_ASC_NODE":218.3192,"ARG_OF_PERICENTER":269.5554,"MEAN_ANOMALY":90.508,"EPHEMERIS_TYPE":0,"CLASSIFICATION_TYPE":"U","NORAD_CAT_ID":66449,"ELEMENT_SET_NO":999,"REV_AT_EPOCH":1115,"BSTAR":0.00065627,"MEAN_MOTION_DOT":0.00017831,"MEAN_MOTION_DDOT":0},{"OBJECT_NAME":"STARLINK-35334","OBJECT_ID":"2025-259AE","EPOCH":"2026-01-14T23:24:19.020096","MEAN_MOTION":15.27587569,"ECCENTRICITY":0.0001661,"INCLINATION":42.9995,"RA_OF_ASC_NODE":217.9221,"ARG_OF_PERICENTER":266.8895,"MEAN_ANOMALY":93.1767,"EPHEMERIS_TYPE":0,"CLASSIFICATION_TYPE":"U","NORAD_CAT_ID":66450,"ELEMENT_SET_NO":999,"REV_AT_EPOCH":1127,"BSTAR":0.00034603,"MEAN_MOTION_DOT":9.274e-5,"MEAN_MOTION_DDOT":0},{"OBJECT_NAME":"STARLINK-35643","OBJECT_ID":"2025-262A","EPOCH":"2026-01-15T00:49:39.579168","MEAN_MOTION":15.40730462,"ECCENTRICITY":0.0002279,"INCLINATION":43.0012,"RA_OF_ASC_NODE":239.7897,"ARG_OF_PERICENTER":258.882,"MEAN_ANOMALY":101.178,"EPHEMERIS_TYPE":0,"CLASSIFICATION_TYPE":"U","NORAD_CAT_ID":66456,"ELEMENT_SET_NO":999,"REV_AT_EPOCH":1069,"BSTAR":0.00087304,"MEAN_MOTION_DOT":0.00036377,"MEAN_MOTION_DDOT":0},{"OBJECT_NAME":"STARLINK-35466","OBJECT_ID":"2025-262B","EPOCH":"2026-01-14T23:09:51.862176","MEAN_MOTION":15.40714593,"ECCENTRICITY":0.0001272,"INCLINATION":42.9956,"RA_OF_ASC_NODE":240.1295,"ARG_OF_PERICENTER":283.6146,"MEAN_ANOMALY":76.4568,"EPHEMERIS_TYPE":0,"CLASSIFICATION_TYPE":"U","NORAD_CAT_ID":66457,"ELEMENT_SET_NO":999,"REV_AT_EPOCH":1068,"BSTAR":0.00082034,"MEAN_MOTION_DOT":0.00034134,"MEAN_MOTION_DDOT":0},{"OBJECT_NAME":"STARLINK-35684","OBJECT_ID":"2025-262C","EPOCH":"2026-01-14T23:13:04.952352","MEAN_MOTION":15.40721436,"ECCENTRICITY":0.0002569,"INCLINATION":43.0017,"RA_OF_ASC_NODE":240.1434,"ARG_OF_PERICENTER":249.1858,"MEAN_ANOMALY":110.8723,"EPHEMERIS_TYPE":0,"CLASSIFICATION_TYPE":"U","NORAD_CAT_ID":66458,"ELEMENT_SET_NO":999,"REV_AT_EPOCH":1068,"BSTAR":0.0005221,"MEAN_MOTION_DOT":0.00021584,"MEAN_MOTION_DDOT":0},{"OBJECT_NAME":"STARLINK-35449","OBJECT_ID":"2025-262D","EPOCH":"2026-01-14T23:06:39.377664","MEAN_MOTION":15.40732664,"ECCENTRICITY":0.0001915,"INCLINATION":43.001,"RA_OF_ASC_NODE":240.1114,"ARG_OF_PERICENTER":269.254,"MEAN_ANOMALY":90.8097,"EPHEMERIS_TYPE":0,"CLASSIFICATION_TYPE":"U","NORAD_CAT_ID":66459,"ELEMENT_SET_NO":999,"REV_AT_EPOCH":1068,"BSTAR":0.00087737,"MEAN_MOTION_DOT":0.00036562,"MEAN_MOTION_DDOT":0},{"OBJECT_NAME":"STARLINK-35424","OBJECT_ID":"2025-262E","EPOCH":"2026-01-15T00:36:46.497888","MEAN_MOTION":15.40729905,"ECCENTRICITY":0.0001315,"INCLINATION":42.9982,"RA_OF_ASC_NODE":239.7203,"ARG_OF_PERICENTER":7.1569,"MEAN_ANOMALY":352.9306,"EPHEMERIS_TYPE":0,"CLASSIFICATION_TYPE":"U","NORAD_CAT_ID":66460,"ELEMENT_SET_NO":999,"REV_AT_EPOCH":1069,"BSTAR":0.000623,"MEAN_MOTION_DOT":0.00025834,"MEAN_MOTION_DDOT":0},{"OBJECT_NAME":"STARLINK-35132","OBJECT_ID":"2025-262F","EPOCH":"2026-01-15T00:33:31.373856","MEAN_MOTION":15.40707206,"ECCENTRICITY":0.0002052,"INCLINATION":43.0002,"RA_OF_ASC_NODE":239.7025,"ARG_OF_PERICENTER":290.9926,"MEAN_ANOMALY":69.0711,"EPHEMERIS_TYPE":0,"CLASSIFICATION_TYPE":"U","NORAD_CAT_ID":66461,"ELEMENT_SET_NO":999,"REV_AT_EPOCH":1069,"BSTAR":0.00044416,"MEAN_MOTION_DOT":0.00018299,"MEAN_MOTION_DDOT":0},{"OBJECT_NAME":"STARLINK-35499","OBJECT_ID":"2025-262G","EPOCH":"2026-01-15T00:30:18.353664","MEAN_MOTION":15.40725187,"ECCENTRICITY":0.0001973,"INCLINATION":43.0029,"RA_OF_ASC_NODE":239.6832,"ARG_OF_PERICENTER":263.0902,"MEAN_ANOMALY":96.9731,"EPHEMERIS_TYPE":0,"CLASSIFICATION_TYPE":"U","NORAD_CAT_ID":66462,"ELEMENT_SET_NO":999,"REV_AT_EPOCH":1069,"BSTAR":0.00063999,"MEAN_MOTION_DOT":0.00026546,"MEAN_MOTION_DDOT":0},{"OBJECT_NAME":"STARLINK-35463","OBJECT_ID":"2025-262H","EPOCH":"2026-01-15T00:23:51.423360","MEAN_MOTION":15.40713799,"ECCENTRICITY":0.0002344,"INCLINATION":43.001,"RA_OF_ASC_NODE":239.6523,"ARG_OF_PERICENTER":265.0359,"MEAN_ANOMALY":95.023,"EPHEMERIS_TYPE":0,"CLASSIFICATION_TYPE":"U","NORAD_CAT_ID":66463,"ELEMENT_SET_NO":999,"REV_AT_EPOCH":1069,"BSTAR":0.00069772,"MEAN_MOTION_DOT":0.00028967,"MEAN_MOTION_DDOT":0},{"OBJECT_NAME":"STARLINK-35435","OBJECT_ID":"2025-262J","EPOCH":"2026-01-14T22:53:43.648224","MEAN_MOTION":15.40715999,"ECCENTRICITY":0.0001992,"INCLINATION":42.9999,"RA_OF_ASC_NODE":240.0383,"ARG_OF_PERICENTER":267.0641,"MEAN_ANOMALY":92.9988,"EPHEMERIS_TYPE":0,"CLASSIFICATION_TYPE":"U","NORAD_CAT_ID":66464,"ELEMENT_SET_NO":999,"REV_AT_EPOCH":1068,"BSTAR":0.00070545,"MEAN_MOTION_DOT":0.00029294,"MEAN_MOTION_DDOT":0},{"OBJECT_NAME":"STARLINK-35448","OBJECT_ID":"2025-262K","EPOCH":"2026-01-14T00:57:06.528096","MEAN_MOTION":15.40747811,"ECCENTRICITY":9.859e-5,"INCLINATION":43.0018,"RA_OF_ASC_NODE":245.2153,"ARG_OF_PERICENTER":297.1176,"MEAN_ANOMALY":62.958,"EPHEMERIS_TYPE":0,"CLASSIFICATION_TYPE":"U","NORAD_CAT_ID":66465,"ELEMENT_SET_NO":999,"REV_AT_EPOCH":1054,"BSTAR":0.0007457932,"MEAN_MOTION_DOT":0.00031026,"MEAN_MOTION_DDOT":0},{"OBJECT_NAME":"STARLINK-35388","OBJECT_ID":"2025-262L","EPOCH":"2026-01-14T22:40:48.845856","MEAN_MOTION":15.40749613,"ECCENTRICITY":0.0001166,"INCLINATION":42.9994,"RA_OF_ASC_NODE":239.9679,"ARG_OF_PERICENTER":239.1103,"MEAN_ANOMALY":120.9639,"EPHEMERIS_TYPE":0,"CLASSIFICATION_TYPE":"U","NORAD_CAT_ID":66466,"ELEMENT_SET_NO":999,"REV_AT_EPOCH":1068,"BSTAR":0.00055612,"MEAN_MOTION_DOT":0.00023035,"MEAN_MOTION_DDOT":0},{"OBJECT_NAME":"STARLINK-35682","OBJECT_ID":"2025-262M","EPOCH":"2026-01-15T04:00:03.000096","MEAN_MOTION":15.28391718,"ECCENTRICITY":0.000151,"INCLINATION":43.0004,"RA_OF_ASC_NODE":238.9041,"ARG_OF_PERICENTER":284.515,"MEAN_ANOMALY":140.2113,"EPHEMERIS_TYPE":0,"CLASSIFICATION_TYPE":"U","NORAD_CAT_ID":66467,"ELEMENT_SET_NO":999,"REV_AT_EPOCH":584,"BSTAR":0.00036298,"MEAN_MOTION_DOT":9.989e-5,"MEAN_MOTION_DDOT":0},{"OBJECT_NAME":"STARLINK-35331","OBJECT_ID":"2025-262N","EPOCH":"2026-01-15T04:00:03.000096","MEAN_MOTION":15.28419771,"ECCENTRICITY":0.0001971,"INCLINATION":43.0001,"RA_OF_ASC_NODE":238.7907,"ARG_OF_PERICENTER":258.3594,"MEAN_ANOMALY":213.6806,"EPHEMERIS_TYPE":0,"CLASSIFICATION_TYPE":"U","NORAD_CAT_ID":66468,"ELEMENT_SET_NO":999,"REV_AT_EPOCH":578,"BSTAR":0.00035608,"MEAN_MOTION_DOT":9.803e-5,"MEAN_MOTION_DDOT":0},{"OBJECT_NAME":"STARLINK-35451","OBJECT_ID":"2025-262P","EPOCH":"2026-01-15T00:01:16.521024","MEAN_MOTION":15.40715513,"ECCENTRICITY":0.0002458,"INCLINATION":43.0017,"RA_OF_ASC_NODE":239.5256,"ARG_OF_PERICENTER":256.2905,"MEAN_ANOMALY":103.7678,"EPHEMERIS_TYPE":0,"CLASSIFICATION_TYPE":"U","NORAD_CAT_ID":66469,"ELEMENT_SET_NO":999,"REV_AT_EPOCH":1069,"BSTAR":0.0005357,"MEAN_MOTION_DOT":0.00022151,"MEAN_MOTION_DDOT":0}]
